*******************************************************************************
Ephemeris / WWW_USER Mon Mar 24 07:28:37 2025 Pasadena, USA      / Horizons    
*******************************************************************************
Target body name: (2018 PK21)                     {source: JPL#33}
Center body name: Earth (399)                     {source: DE441}
Center-site name: Mauna Kea
*******************************************************************************
Start time      : A.D. 2018-Oct-27 04:00:00.0000 UT      
Stop  time      : A.D. 2018-Oct-27 16:11:00.0000 UT      
Step-size       : 1 minutes
*******************************************************************************
Target pole/equ : undefined
Target radii    : undefined                                                    
Center geodetic : 204.5278, 19.8260847, 4.21024   {E-lon(deg),Lat(deg),Alt(km)}
Center cylindric: 204.5278, 6006.35451, 2151.0229 {E-lon(deg),Dxy(km),Dz(km)}
Center pole/equ : ITRF93                          {East-longitude positive}
Center radii    : 6378.137, 6378.137, 6356.752 km {Equator_a, b, pole_c}       
Target primary  : Sun
Vis. interferer : MOON (R_eq= 1737.400) km        {source: DE441}
Rel. light bend : Sun                             {source: DE441}
Rel. lght bnd GM: 1.3271E+11 km^3/s^2                                          
Small-body perts: Yes                             {source: SB441-N16}
Atmos refraction: NO (AIRLESS)
RA format       : HMS
Time format     : CAL 
Calendar mode   : Mixed Julian/Gregorian
RTS-only print  : NO       
EOP file        : eop.250321.p250617                                           
EOP coverage    : DATA-BASED 1962-JAN-20 TO 2025-MAR-21. PREDICTS-> 2025-JUN-16
Units conversion: 1 au= 149597870.700 km, c= 299792.458 km/s, 1 day= 86400.0 s 
Table cut-offs 1: Elevation (-90.0deg=NO ),Airmass (>38.000=NO), Daylight (YES)
Table cut-offs 2: Solar elongation (  0.0,180.0=NO ),Local Hour Angle( 0.0=NO )
Table cut-offs 3: RA/DEC angular rate (     0.0=NO )                           
*******************************************************************************
Initial IAU76/J2000 heliocentric ecliptic osculating elements (au, days, deg.):
  EPOCH=  2458678.5 ! 2019-Jul-14.00 (TDB)         Residual RMS= .18538        
   EC= .08059571149071894  QR= .9080173735553244   TP= 2458556.3979336754      
   OM= 305.3714803879685   W=  224.0867446587677   IN= 1.196977749955446       
  Equivalent ICRF heliocentric cartesian coordinates (au, au/d):
   X= 5.084898226316541E-01  Y=-8.259633024476691E-01  Z=-3.605371187528673E-01
  VX= 1.486595997640644E-02 VY= 6.429710771461657E-03 VZ= 3.158008025433540E-03
Asteroid physical parameters (km, seconds, rotational period in hours):        
   GM= n.a.                RAD= n.a.               ROTPER= n.a.                
   H= 25.88                G= .150                 B-V= n.a.                   
                           ALBEDO= n.a.            STYP= n.a.                  
*******************************************************************************
 Date__(UT)__HR:MN     R.A._________(ICRF)_________DEC
******************************************************
$$SOE
 2018-Oct-27 10:09  m  21 25 06.752983 -06 30 44.71919
 2018-Oct-27 10:10  m  21 25 06.826274 -06 30 44.48978
 2018-Oct-27 10:11  m  21 25 06.899632 -06 30 44.26032
 2018-Oct-27 10:12  m  21 25 06.973058 -06 30 44.03082
 2018-Oct-27 10:13  m  21 25 07.046551 -06 30 43.80128
 2018-Oct-27 10:14  m  21 25 07.120111 -06 30 43.57171
 2018-Oct-27 10:15  m  21 25 07.193739 -06 30 43.34209
 2018-Oct-27 10:16  m  21 25 07.267434 -06 30 43.11244
 2018-Oct-27 10:17  m  21 25 07.341197 -06 30 42.88275
 2018-Oct-27 10:18  m  21 25 07.415028 -06 30 42.65302
 2018-Oct-27 10:19  m  21 25 07.488927 -06 30 42.42325
 2018-Oct-27 10:20  m  21 25 07.562894 -06 30 42.19345
 2018-Oct-27 10:21  m  21 25 07.636929 -06 30 41.96361
 2018-Oct-27 10:22  m  21 25 07.711032 -06 30 41.73374
 2018-Oct-27 10:23  m  21 25 07.785204 -06 30 41.50383
 2018-Oct-27 10:24  m  21 25 07.859443 -06 30 41.27388
 2018-Oct-27 10:25  m  21 25 07.933751 -06 30 41.04390
 2018-Oct-27 10:26  m  21 25 08.008128 -06 30 40.81389
 2018-Oct-27 10:27  m  21 25 08.082573 -06 30 40.58385
 2018-Oct-27 10:28  m  21 25 08.157087 -06 30 40.35377
 2018-Oct-27 10:29  m  21 25 08.231669 -06 30 40.12366
 2018-Oct-27 10:30  m  21 25 08.306320 -06 30 39.89352
 2018-Oct-27 10:31  m  21 25 08.381040 -06 30 39.66335
 2018-Oct-27 10:32  m  21 25 08.455829 -06 30 39.43315
 2018-Oct-27 10:33  m  21 25 08.530687 -06 30 39.20292
 2018-Oct-27 10:34  m  21 25 08.605614 -06 30 38.97265
 2018-Oct-27 10:35  m  21 25 08.680610 -06 30 38.74236
 2018-Oct-27 10:36  m  21 25 08.755676 -06 30 38.51204
 2018-Oct-27 10:37  m  21 25 08.830810 -06 30 38.28170
 2018-Oct-27 10:38  m  21 25 08.906014 -06 30 38.05132
 2018-Oct-27 10:39  m  21 25 08.981287 -06 30 37.82092
 2018-Oct-27 10:40  m  21 25 09.056630 -06 30 37.59049
 2018-Oct-27 10:41  m  21 25 09.132042 -06 30 37.36004
 2018-Oct-27 10:42  m  21 25 09.207524 -06 30 37.12956
 2018-Oct-27 10:43  m  21 25 09.283075 -06 30 36.89905
 2018-Oct-27 10:44  m  21 25 09.358696 -06 30 36.66852
 2018-Oct-27 10:45  m  21 25 09.434387 -06 30 36.43797
 2018-Oct-27 10:46  m  21 25 09.510147 -06 30 36.20739
 2018-Oct-27 10:47  m  21 25 09.585977 -06 30 35.97679
 2018-Oct-27 10:48  m  21 25 09.661877 -06 30 35.74617
 2018-Oct-27 10:49  m  21 25 09.737847 -06 30 35.51553
 2018-Oct-27 10:50  m  21 25 09.813887 -06 30 35.28486
 2018-Oct-27 10:51  m  21 25 09.889998 -06 30 35.05417
 2018-Oct-27 10:52  m  21 25 09.966178 -06 30 34.82347
 2018-Oct-27 10:53  m  21 25 10.042428 -06 30 34.59274
 2018-Oct-27 10:54  m  21 25 10.118748 -06 30 34.36199
 2018-Oct-27 10:55  m  21 25 10.195139 -06 30 34.13123
 2018-Oct-27 10:56  m  21 25 10.271599 -06 30 33.90044
 2018-Oct-27 10:57  m  21 25 10.348130 -06 30 33.66964
 2018-Oct-27 10:58  m  21 25 10.424731 -06 30 33.43882
 2018-Oct-27 10:59  m  21 25 10.501403 -06 30 33.20799
 2018-Oct-27 11:00  m  21 25 10.578145 -06 30 32.97713
 2018-Oct-27 11:01  m  21 25 10.654957 -06 30 32.74626
 2018-Oct-27 11:02  m  21 25 10.731840 -06 30 32.51538
 2018-Oct-27 11:03  m  21 25 10.808793 -06 30 32.28448
 2018-Oct-27 11:04  m  21 25 10.885817 -06 30 32.05357
 2018-Oct-27 11:05  m  21 25 10.962911 -06 30 31.82264
 2018-Oct-27 11:06  m  21 25 11.040076 -06 30 31.59170
 2018-Oct-27 11:07  m  21 25 11.117311 -06 30 31.36075
 2018-Oct-27 11:08  m  21 25 11.194617 -06 30 31.12978
 2018-Oct-27 11:09  m  21 25 11.271993 -06 30 30.89881
 2018-Oct-27 11:10  m  21 25 11.349440 -06 30 30.66782
 2018-Oct-27 11:11  m  21 25 11.426958 -06 30 30.43682
 2018-Oct-27 11:12  m  21 25 11.504546 -06 30 30.20581
 2018-Oct-27 11:13  m  21 25 11.582205 -06 30 29.97479
 2018-Oct-27 11:14  m  21 25 11.659935 -06 30 29.74376
 2018-Oct-27 11:15  m  21 25 11.737735 -06 30 29.51273
 2018-Oct-27 11:16  m  21 25 11.815606 -06 30 29.28168
 2018-Oct-27 11:17  m  21 25 11.893548 -06 30 29.05063
 2018-Oct-27 11:18  m  21 25 11.971561 -06 30 28.81957
 2018-Oct-27 11:19  m  21 25 12.049644 -06 30 28.58850
 2018-Oct-27 11:20  m  21 25 12.127798 -06 30 28.35743
 2018-Oct-27 11:21  m  21 25 12.206023 -06 30 28.12635
 2018-Oct-27 11:22  m  21 25 12.284319 -06 30 27.89526
 2018-Oct-27 11:23  m  21 25 12.362685 -06 30 27.66418
 2018-Oct-27 11:24  m  21 25 12.441122 -06 30 27.43308
 2018-Oct-27 11:25  m  21 25 12.519630 -06 30 27.20199
 2018-Oct-27 11:26  m  21 25 12.598208 -06 30 26.97089
 2018-Oct-27 11:27  m  21 25 12.676858 -06 30 26.73979
 2018-Oct-27 11:28  s  21 25 12.755578 -06 30 26.50868
 2018-Oct-27 11:29  m  21 25 12.834369 -06 30 26.27758
 2018-Oct-27 11:30  m  21 25 12.913231 -06 30 26.04647
 2018-Oct-27 11:31  m  21 25 12.992163 -06 30 25.81536
 2018-Oct-27 11:32  m  21 25 13.071166 -06 30 25.58425
 2018-Oct-27 11:33  m  21 25 13.150240 -06 30 25.35315
 2018-Oct-27 11:34  m  21 25 13.229384 -06 30 25.12204
 2018-Oct-27 11:35  m  21 25 13.308600 -06 30 24.89094
 2018-Oct-27 11:36  m  21 25 13.387885 -06 30 24.65984
 2018-Oct-27 11:37  m  21 25 13.467242 -06 30 24.42874
 2018-Oct-27 11:38  m  21 25 13.546669 -06 30 24.19764
 2018-Oct-27 11:39  m  21 25 13.626167 -06 30 23.96655
 2018-Oct-27 11:40  m  21 25 13.705736 -06 30 23.73546
 2018-Oct-27 11:41  m  21 25 13.785375 -06 30 23.50437
 2018-Oct-27 11:42  m  21 25 13.865084 -06 30 23.27329
 2018-Oct-27 11:43  m  21 25 13.944864 -06 30 23.04222
 2018-Oct-27 11:44  m  21 25 14.024715 -06 30 22.81115
 2018-Oct-27 11:45  m  21 25 14.104636 -06 30 22.58009
 2018-Oct-27 11:46  m  21 25 14.184628 -06 30 22.34904
 2018-Oct-27 11:47  m  21 25 14.264690 -06 30 22.11799
 2018-Oct-27 11:48  m  21 25 14.344822 -06 30 21.88695
 2018-Oct-27 11:49  m  21 25 14.425025 -06 30 21.65592
 2018-Oct-27 11:50  m  21 25 14.505298 -06 30 21.42490
 2018-Oct-27 11:51  m  21 25 14.585641 -06 30 21.19389
 2018-Oct-27 11:52  m  21 25 14.666055 -06 30 20.96289
 2018-Oct-27 11:53  m  21 25 14.746539 -06 30 20.73190
 2018-Oct-27 11:54  m  21 25 14.827093 -06 30 20.50092
 2018-Oct-27 11:55  m  21 25 14.907717 -06 30 20.26995
 2018-Oct-27 11:56  m  21 25 14.988411 -06 30 20.03899
 2018-Oct-27 11:57  m  21 25 15.069176 -06 30 19.80805
 2018-Oct-27 11:58  m  21 25 15.150010 -06 30 19.57712
 2018-Oct-27 11:59  m  21 25 15.230915 -06 30 19.34621
 2018-Oct-27 12:00  m  21 25 15.311889 -06 30 19.11530
 2018-Oct-27 12:01  m  21 25 15.392933 -06 30 18.88442
 2018-Oct-27 12:02  m  21 25 15.474047 -06 30 18.65355
 2018-Oct-27 12:03  m  21 25 15.555231 -06 30 18.42269
 2018-Oct-27 12:04  m  21 25 15.636484 -06 30 18.19185
 2018-Oct-27 12:05  m  21 25 15.717808 -06 30 17.96103
 2018-Oct-27 12:06  m  21 25 15.799201 -06 30 17.73022
 2018-Oct-27 12:07  m  21 25 15.880663 -06 30 17.49943
 2018-Oct-27 12:08  m  21 25 15.962195 -06 30 17.26866
 2018-Oct-27 12:09  m  21 25 16.043796 -06 30 17.03791
 2018-Oct-27 12:10  m  21 25 16.125467 -06 30 16.80718
 2018-Oct-27 12:11  m  21 25 16.207207 -06 30 16.57646
